<?xml version="1.0" ?>
<kml xmlns="http://www.opengis.net/kml/2.2">
  <Document>
    <Placemark>
      <name>Source</name>
      <description>Crashed Drone</description>
      <Point>
        <coordinates>-71.0,48.0,0</coordinates>
      </Point>
    </Placemark>
    <Placemark>
      <name>Hotspot 1</name>
      <Point>
        <coordinates>-71.63460305159317,48.50263986774272,0</coordinates>
      </Point>
    </Placemark>
    <Placemark>
      <name>Hotspot 2</name>
      <Point>
        <coordinates>-71.6354718451306,48.50305044975033,0</coordinates>
      </Point>
    </Placemark>
    <Placemark>
      <name>Hotspot 3</name>
      <Point>
        <coordinates>-71.6353428479224,48.50203386030815,0</coordinates>
      </Point>
    </Placemark>
    <Placemark>
      <name>Hotspot 4</name>
      <Point>
        <coordinates>-123.365644,48.428421,0</coordinates>
      </Point>
    </Placemark>
    <Placemark>
      <name>Hotspot 5</name>
      <Point>
        <coordinates>-123.365647,48.428423,0</coordinates>
      </Point>
    </Placemark>
    <Placemark>
      <name>Hotspot 6</name>
      <Point>
        <coordinates>-123.3700025,48.429001,0</coordinates>
      </Point>
    </Placemark>
    <Placemark>
      <name>Hotspot 7</name>
      <Point>
        <coordinates>-123.375,48.431,0</coordinates>
      </Point>
    </Placemark>
  </Document>
</kml>
