<?xml version="1.0" encoding="UTF-8"?>
<kml xmlns="http://www.opengis.net/kml/2.2">
  <Document>
    <name>Sample KML 1</name>
    <Placemark>
      <name>Hotspot 1</name>
      <Point>
        <coordinates>-123.365644,48.428421,0</coordinates>
      </Point>
    </Placemark>
    <Placemark>
      <name>Hotspot 2</name>
      <Point>
        <coordinates>-123.365650,48.428426,0</coordinates>
      </Point>
    </Placemark>
    <Placemark>
      <name>Hotspot 3</name>
      <Point>
        <coordinates>-123.370000,48.429000,0</coordinates>
      </Point>
    </Placemark>
  </Document>
</kml>
